start=new Date('2023-03-29T00:00:00.000Z').valueOf();
sats=[{"TLE_LINE2":"2 44747  53.0569  20.7010 0001221  95.8852 264.2275 15.05621000185898","REV_AT_EPOCH":"18589","MEAN_MOTION":"15.05621000","PERIAPSIS":"548.756","OBJECT_ID":"2019-074AL","TIME_SYSTEM":"UTC","COUNTRY_CODE":"US","OBJECT_TYPE":"PAYLOAD","MEAN_MOTION_DOT":"0.00027730","SEMIMAJOR_AXIS":"6927.737","TLE_LINE1":"1 44747U 19074AL  23087.83836166  .00027730  00000-0  19128-2 0  9990","ECCENTRICITY":"0.00012210","OBJECT_NAME":"STARLINK-1042","MEAN_ANOMALY":"264.2275","MEAN_MOTION_DDOT":"0.0000000000000","DECAY_DATE":null,"MEAN_ELEMENT_THEORY":"SGP4","LAUNCH_DATE":"2019-11-11","RCS_SIZE":"LARGE","GP_ID":"229062480","APOAPSIS":"550.448","REF_FRAME":"TEME","CENTER_NAME":"EARTH","FILE":"3873921","PERIOD":"95.642","RA_OF_ASC_NODE":"20.7010","ARG_OF_PERICENTER":"95.8852","CLASSIFICATION_TYPE":"U","BSTAR":"0.00191280000000","SITE":"AFETR","ELEMENT_SET_NO":"999","EPOCH":"2023-03-28T20:07:14.447424","EPHEMERIS_TYPE":"0","NORAD_CAT_ID":"44747","INCLINATION":"53.0569"},{"GP_ID":"229039830","APOAPSIS":"547.964","RCS_SIZE":"LARGE","LAUNCH_DATE":"2019-11-11","MEAN_ELEMENT_THEORY":"SGP4","DECAY_DATE":null,"MEAN_MOTION_DDOT":"0.0000000000000","CENTER_NAME":"EARTH","REF_FRAME":"TEME","CLASSIFICATION_TYPE":"U","BSTAR":"0.00181640000000","ARG_OF_PERICENTER":"109.7931","RA_OF_ASC_NODE":"20.3231","PERIOD":"95.590","FILE":"3873725","INCLINATION":"53.0562","NORAD_CAT_ID":"44748","EPHEMERIS_TYPE":"0","EPOCH":"2023-03-28T22:37:17.664384","ELEMENT_SET_NO":"999","SITE":"AFETR","TLE_LINE2":"2 44748  53.0562  20.3231 0001253 109.7931 250.3193 15.06438253186074","OBJECT_ID":"2019-074AM","PERIAPSIS":"546.229","REV_AT_EPOCH":"18607","MEAN_MOTION":"15.06438253","TLE_LINE1":"1 44748U 19074AM  23087.94256556  .00026905  00000-0  18164-2 0  9994","SEMIMAJOR_AXIS":"6925.231","MEAN_MOTION_DOT":"0.00026905","COUNTRY_CODE":"US","OBJECT_TYPE":"PAYLOAD","TIME_SYSTEM":"UTC","MEAN_ANOMALY":"250.3193","OBJECT_NAME":"STARLINK-1043","ECCENTRICITY":"0.00012530"},{"TLE_LINE1":"1 44751U 19074AQ  23087.95731849  .00022754  00000-0  15401-2 0  9991","TIME_SYSTEM":"UTC","COUNTRY_CODE":"US","MEAN_MOTION_DOT":"0.00022754","OBJECT_TYPE":"PAYLOAD","SEMIMAJOR_AXIS":"6925.242","OBJECT_NAME":"STARLINK-1046","MEAN_ANOMALY":"266.5363","ECCENTRICITY":"0.00009480","TLE_LINE2":"2 44751  53.0541  20.2534 0000948  93.5735 266.5363 15.06434623186077","OBJECT_ID":"2019-074AQ","REV_AT_EPOCH":"18607","MEAN_MOTION":"15.06434623","PERIAPSIS":"546.451","ARG_OF_PERICENTER":"93.5735","BSTAR":"0.00154010000000","CLASSIFICATION_TYPE":"U","FILE":"3873725","PERIOD":"95.590","RA_OF_ASC_NODE":"20.2534","EPHEMERIS_TYPE":"0","NORAD_CAT_ID":"44751","INCLINATION":"53.0541","ELEMENT_SET_NO":"999","SITE":"AFETR","EPOCH":"2023-03-28T22:58:32.317536","LAUNCH_DATE":"2019-11-11","RCS_SIZE":"LARGE","GP_ID":"229039321","APOAPSIS":"547.764","MEAN_MOTION_DDOT":"0.0000000000000","DECAY_DATE":null,"MEAN_ELEMENT_THEORY":"SGP4","REF_FRAME":"TEME","CENTER_NAME":"EARTH"},{"PERIOD":"95.588","FILE":"3873725","RA_OF_ASC_NODE":"0.1636","ARG_OF_PERICENTER":"92.3426","CLASSIFICATION_TYPE":"U","BSTAR":"0.00223690000000","ELEMENT_SET_NO":"999","SITE":"AFETR","EPOCH":"2023-03-28T23:27:43.299936","EPHEMERIS_TYPE":"0","NORAD_CAT_ID":"44752","INCLINATION":"53.0558","MEAN_MOTION_DDOT":"0.0000000000000","MEAN_ELEMENT_THEORY":"SGP4","DECAY_DATE":null,"LAUNCH_DATE":"2019-11-11","GP_ID":"229039829","APOAPSIS":"547.736","RCS_SIZE":"LARGE","REF_FRAME":"TEME","CENTER_NAME":"EARTH","COUNTRY_CODE":"US","MEAN_MOTION_DOT":"0.00033250","OBJECT_TYPE":"PAYLOAD","TIME_SYSTEM":"UTC","SEMIMAJOR_AXIS":"6925.162","TLE_LINE1":"1 44752U 19074AR  23087.97758449  .00033250  00000-0  22369-2 0  9993","ECCENTRICITY":"0.00010240","OBJECT_NAME":"STARLINK-1047","MEAN_ANOMALY":"267.7681","TLE_LINE2":"2 44752  53.0558   0.1636 0001024  92.3426 267.7681 15.06460993186352","REV_AT_EPOCH":"18635","MEAN_MOTION":"15.06460993","PERIAPSIS":"546.317","OBJECT_ID":"2019-074AR"},{"PERIOD":"95.585","FILE":"3873726","RA_OF_ASC_NODE":"340.4380","ARG_OF_PERICENTER":"101.8561","BSTAR":"0.00280970000000","CLASSIFICATION_TYPE":"U","SITE":"AFETR","ELEMENT_SET_NO":"999","EPOCH":"2023-03-28T22:00:09.837792","EPHEMERIS_TYPE":"0","NORAD_CAT_ID":"44753","INCLINATION":"53.0548","MEAN_MOTION_DDOT":"0.0000000000000","MEAN_ELEMENT_THEORY":"SGP4","DECAY_DATE":null,"LAUNCH_DATE":"2019-11-11","APOAPSIS":"547.831","GP_ID":"229039331","RCS_SIZE":"LARGE","CENTER_NAME":"EARTH","REF_FRAME":"TEME","COUNTRY_CODE":"US","MEAN_MOTION_DOT":"0.00041955","OBJECT_TYPE":"PAYLOAD","TIME_SYSTEM":"UTC","SEMIMAJOR_AXIS":"6924.981","TLE_LINE1":"1 44753U 19074AS  23087.91678053  .00041955  00000-0  28097-2 0  9995","ECCENTRICITY":"0.00014220","OBJECT_NAME":"STARLINK-1048","MEAN_ANOMALY":"258.2587","TLE_LINE2":"2 44753  53.0548 340.4380 0001422 101.8561 258.2587 15.06519989186626","MEAN_MOTION":"15.06519989","REV_AT_EPOCH":"18662","PERIAPSIS":"545.861","OBJECT_ID":"2019-074AS"},{"MEAN_MOTION":"15.06470776","REV_AT_EPOCH":"18663","PERIAPSIS":"546.167","OBJECT_ID":"2019-074AT","TLE_LINE2":"2 44754  53.0547 340.1228 0001198  76.6323 283.4799 15.06470776186635","ECCENTRICITY":"0.00011980","OBJECT_NAME":"STARLINK-1049","MEAN_ANOMALY":"283.4799","COUNTRY_CODE":"US","OBJECT_TYPE":"PAYLOAD","MEAN_MOTION_DOT":"0.00031748","TIME_SYSTEM":"UTC","SEMIMAJOR_AXIS":"6925.132","TLE_LINE1":"1 44754U 19074AT  23087.98679698  .00031748  00000-0  21366-2 0  9990","REF_FRAME":"TEME","CENTER_NAME":"EARTH","MEAN_MOTION_DDOT":"0.0000000000000","MEAN_ELEMENT_THEORY":"SGP4","DECAY_DATE":null,"LAUNCH_DATE":"2019-11-11","GP_ID":"229039834","APOAPSIS":"547.826","RCS_SIZE":"LARGE","SITE":"AFETR","ELEMENT_SET_NO":"999","EPOCH":"2023-03-28T23:40:59.259072","EPHEMERIS_TYPE":"0","NORAD_CAT_ID":"44754","INCLINATION":"53.0547","PERIOD":"95.588","FILE":"3873726","RA_OF_ASC_NODE":"340.1228","ARG_OF_PERICENTER":"76.6323","CLASSIFICATION_TYPE":"U","BSTAR":"0.00213660000000"},{"OBJECT_ID":"2019-074AW","REV_AT_EPOCH":"18615","MEAN_MOTION":"15.06416136","PERIAPSIS":"546.439","TLE_LINE2":"2 44757  53.0552   1.0096 0001047  99.6524 260.4583 15.06416136186154","OBJECT_NAME":"STARLINK-1052","MEAN_ANOMALY":"260.4583","ECCENTRICITY":"0.00010470","TLE_LINE1":"1 44757U 19074AW  23087.78961946  .00034669  00000-0  23339-2 0  9998","COUNTRY_CODE":"US","MEAN_MOTION_DOT":"0.00034669","OBJECT_TYPE":"PAYLOAD","TIME_SYSTEM":"UTC","SEMIMAJOR_AXIS":"6925.299","REF_FRAME":"TEME","CENTER_NAME":"EARTH","LAUNCH_DATE":"2019-11-11","APOAPSIS":"547.889","GP_ID":"229063252","RCS_SIZE":"LARGE","MEAN_MOTION_DDOT":"0.0000000000000","MEAN_ELEMENT_THEORY":"SGP4","DECAY_DATE":null,"EPHEMERIS_TYPE":"0","NORAD_CAT_ID":"44757","INCLINATION":"53.0552","ELEMENT_SET_NO":"999","SITE":"AFETR","EPOCH":"2023-03-28T18:57:03.121344","ARG_OF_PERICENTER":"99.6524","CLASSIFICATION_TYPE":"U","BSTAR":"0.00233390000000","PERIOD":"95.591","FILE":"3873921","RA_OF_ASC_NODE":"1.0096"},{"MEAN_MOTION":"15.06434108","REV_AT_EPOCH":"18607","PERIAPSIS":"546.064","OBJECT_ID":"2019-074AX","TLE_LINE2":"2 44758  53.0547  20.4306 0001509  96.5008 263.6153 15.06434108186072","ECCENTRICITY":"0.00015090","OBJECT_NAME":"STARLINK-1053","MEAN_ANOMALY":"263.6153","MEAN_MOTION_DOT":"0.00019388","COUNTRY_CODE":"US","OBJECT_TYPE":"PAYLOAD","TIME_SYSTEM":"UTC","SEMIMAJOR_AXIS":"6925.244","TLE_LINE1":"1 44758U 19074AX  23087.93890266  .00019388  00000-0  13157-2 0  9990","CENTER_NAME":"EARTH","REF_FRAME":"TEME","MEAN_MOTION_DDOT":"0.0000000000000","MEAN_ELEMENT_THEORY":"SGP4","DECAY_DATE":null,"LAUNCH_DATE":"2019-11-11","APOAPSIS":"548.154","GP_ID":"229039906","RCS_SIZE":"LARGE","ELEMENT_SET_NO":"999","SITE":"AFETR","EPOCH":"2023-03-28T22:32:01.189824","EPHEMERIS_TYPE":"0","NORAD_CAT_ID":"44758","INCLINATION":"53.0547","PERIOD":"95.590","FILE":"3873749","RA_OF_ASC_NODE":"20.4306","ARG_OF_PERICENTER":"96.5008","BSTAR":"0.00131570000000","CLASSIFICATION_TYPE":"U"},{"TLE_LINE2":"2 44759  53.0550  21.0161 0001135  96.5311 263.5807 15.06420574183529","OBJECT_ID":"2019-074AY","REV_AT_EPOCH":"18352","MEAN_MOTION":"15.06420574","PERIAPSIS":"546.364","TLE_LINE1":"1 44759U 19074AY  23087.78777688  .00035349  00000-0  23788-2 0  9992","TIME_SYSTEM":"UTC","COUNTRY_CODE":"US","OBJECT_TYPE":"PAYLOAD","MEAN_MOTION_DOT":"0.00035349","SEMIMAJOR_AXIS":"6925.286","OBJECT_NAME":"STARLINK-1054","MEAN_ANOMALY":"263.5807","ECCENTRICITY":"0.00011350","LAUNCH_DATE":"2019-11-11","RCS_SIZE":"LARGE","APOAPSIS":"547.937","GP_ID":"229062481","MEAN_MOTION_DDOT":"0.0000000000000","DECAY_DATE":null,"MEAN_ELEMENT_THEORY":"SGP4","REF_FRAME":"TEME","CENTER_NAME":"EARTH","ARG_OF_PERICENTER":"96.5311","BSTAR":"0.00237880000000","CLASSIFICATION_TYPE":"U","FILE":"3873921","PERIOD":"95.591","RA_OF_ASC_NODE":"21.0161","EPHEMERIS_TYPE":"0","INCLINATION":"53.0550","NORAD_CAT_ID":"44759","ELEMENT_SET_NO":"999","SITE":"AFETR","EPOCH":"2023-03-28T18:54:23.922432"},{"MEAN_MOTION":"15.12016659","REV_AT_EPOCH":"18610","PERIAPSIS":"528.525","OBJECT_ID":"2019-074AZ","TLE_LINE2":"2 44760  53.0549  18.6924 0002212  95.1577 264.9666 15.12016659186101","ECCENTRICITY":"0.00022120","OBJECT_NAME":"STARLINK-1055","MEAN_ANOMALY":"264.9666","TIME_SYSTEM":"UTC","OBJECT_TYPE":"PAYLOAD","COUNTRY_CODE":"US","MEAN_MOTION_DOT":"0.00050242","SEMIMAJOR_AXIS":"6908.188","TLE_LINE1":"1 44760U 19074AZ  23087.95448509  .00050242  00000-0  28882-2 0  9999","REF_FRAME":"TEME","CENTER_NAME":"EARTH","MEAN_MOTION_DDOT":"0.0000000000000","DECAY_DATE":null,"MEAN_ELEMENT_THEORY":"SGP4","LAUNCH_DATE":"2019-11-11","RCS_SIZE":"LARGE","APOAPSIS":"531.581","GP_ID":"229039909","SITE":"AFETR","ELEMENT_SET_NO":"999","EPOCH":"2023-03-28T22:54:27.511776","EPHEMERIS_TYPE":"0","NORAD_CAT_ID":"44760","INCLINATION":"53.0549","FILE":"3873749","PERIOD":"95.237","RA_OF_ASC_NODE":"18.6924","ARG_OF_PERICENTER":"95.1577","BSTAR":"0.00288820000000","CLASSIFICATION_TYPE":"U"}];
